{
  "norad_id": 68550,
  "name": "STARLINK-36304",
  "history": [
    {
      "epoch": "2026-04-09T20:00:01.999008Z",
      "apogee_km": 275.203997476111,
      "perigee_km": 274.16482677153726,
      "latitude_deg": -40.06119752882678,
      "longitude_deg": 51.94254928124989,
      "height_km": 288.0100587001743,
      "semi_major_axis_km": 6652.821412123823,
      "eccentricity": 7.81e-05,
      "inclination_deg": 53.1587,
      "raan_deg": 228.8167,
      "arg_perigee_deg": 53.0083,
      "mean_anomaly_deg": 253.8032,
      "mean_motion_rev_day": 15.99904146
    }
  ]
}