STARLINK-36304          
1 68550U 26070J   26099.83335647 -.00904455  27678-3 -17274-2 0  9999
2 68550  53.1587 228.8167 0000781  53.0083 253.8032 15.99904146  2333
